ONEWEB-0414             
1 50491U 21132Y   25236.49329636 -.00000205  00000+0 -55189-3 0  9997
2 50491  87.9151  34.3535 0001884  96.6066 263.5281 13.18687093182520
ONEWEB-0417             
1 50492U 21132Z   25236.50154653  .00000015  00000+0  40535-5 0  9993
2 50492  87.9155  34.3840 0001877 100.6917 259.4427 13.18686884182508
ONEWEB-0418             
1 50493U 21132AA  25236.51133163 -.00000006  00000+0 -48363-4 0  9996
2 50493  87.9155  34.3680 0002039 107.9967 252.1387 13.18687537182564
ONEWEB-0419             
1 50494U 21132AB  25236.45369821  .00000053  00000+0  10180-3 0  9997
2 50494  87.9150  34.3808 0001643 105.2837 254.8477 13.18681559182476
ONEWEB-0420             
1 50495U 21132AC  25236.49494293  .00000071  00000+0  14711-3 0  9998
2 50495  87.9151  34.3829 0001675  83.3756 276.7567 13.18686743182475
ONEWEB-0421             
1 50496U 21132AD  25236.48835155  .00000086  00000+0  18444-3 0  9997
2 50496  87.9153  34.3775 0002099  90.6129 269.5243 13.18686601182513
ONEWEB-0424             
1 50497U 21132AE  25236.44873913  .00000090  00000+0  19476-3 0  9999
2 50497  87.9155  34.3797 0001493 105.3532 254.7765 13.18686706182532
ONEWEB-0426             
1 50498U 21132AF  25236.48504934  .00000019  00000+0  15391-4 0  9992
2 50498  87.9153  34.3657 0002536  97.9465 262.1955 13.18686327182483
ONEWEB-0427             
1 50499U 21132AG  25236.44709339  .00000071  00000+0  14823-3 0  9991
2 50499  87.9152  34.3623 0001851 100.4335 259.7006 13.18684803182500
ONEWEB-0429             
1 50500U 21132AH  25236.50981506 -.00000070  00000+0 -21059-3 0  9999
2 50500  87.9154  34.3795 0001701  89.4970 270.6357 13.18687642182482
ONEWEB-0430             
1 50501U 21132AJ  25236.49824494  .00000000  00000+0 -32097-4 0  9997
2 50501  87.9154  34.3760 0001482  94.7436 265.3865 13.18685933182528
ONEWEB-0432             
1 50502U 21132AK  25236.45389973  .00000027  00000+0  34798-4 0  9990
2 50502  87.9146  34.3644 0001874 123.4454 236.6858 13.18689375182477
ONEWEB-0440             
1 50503U 21132AL  25236.51803055  .00000078  00000+0  16538-3 0  9997
2 50503  87.9156  34.3612 0002004  82.9685 277.1675 13.18688168182471
ONEWEB-0450             
1 50504U 21132AM  25236.51159164  .00000009  00000+0 -89513-5 0  9993
2 50504  87.9153  34.3881 0001559  86.7366 273.3945 13.18686688182506
ONEWEB-0410             
1 51622U 22012A   25236.53466658  .00000041  00000+0  73139-4 0  9995
2 51622  87.9033  64.8644 0002936 111.3029 248.8416 13.17650411174630
ONEWEB-0411             
1 51623U 22012B   25236.59318224  .00000630  00000+0  17679-2 0  9996
2 51623  87.8762  95.4230 0001122  80.2141 279.9113 13.10375779170443
ONEWEB-0415             
1 51624U 22012C   25236.58986013  .00000563  00000+0  15775-2 0  9993
2 51624  87.8763  95.4265 0001396  82.0881 278.0405 13.10377090170449
