[{"OBJECT_NAME":"ONEWEB-0414","OBJECT_ID":"2021-132Y","EPOCH":"2025-08-24T11:50:20.805504","MEAN_MOTION":13.18687093,"ECCENTRICITY":0.00018845,"INCLINATION":87.9151,"RA_OF_ASC_NODE":34.3535,"ARG_OF_PERICENTER":96.6066,"MEAN_ANOMALY":263.5281,"EPHEMERIS_TYPE":0,"CLASSIFICATION_TYPE":"U","NORAD_CAT_ID":50491,"ELEMENT_SET_NO":999,"REV_AT_EPOCH":18252,"BSTAR":-0.00055189438,"MEAN_MOTION_DOT":-2.05e-6,"MEAN_MOTION_DDOT":0},{"OBJECT_NAME":"ONEWEB-0417","OBJECT_ID":"2021-132Z","EPOCH":"2025-08-24T12:02:13.620192","MEAN_MOTION":13.18686884,"ECCENTRICITY":0.00018777,"INCLINATION":87.9155,"RA_OF_ASC_NODE":34.384,"ARG_OF_PERICENTER":100.6917,"MEAN_ANOMALY":259.4427,"EPHEMERIS_TYPE":0,"CLASSIFICATION_TYPE":"U","NORAD_CAT_ID":50492,"ELEMENT_SET_NO":999,"REV_AT_EPOCH":18250,"BSTAR":4.053546e-6,"MEAN_MOTION_DOT":1.5e-7,"MEAN_MOTION_DDOT":0},{"OBJECT_NAME":"ONEWEB-0418","OBJECT_ID":"2021-132AA","EPOCH":"2025-08-24T12:16:19.052832","MEAN_MOTION":13.18687537,"ECCENTRICITY":0.00020392,"INCLINATION":87.9155,"RA_OF_ASC_NODE":34.368,"ARG_OF_PERICENTER":107.9967,"MEAN_ANOMALY":252.1387,"EPHEMERIS_TYPE":0,"CLASSIFICATION_TYPE":"U","NORAD_CAT_ID":50493,"ELEMENT_SET_NO":999,"REV_AT_EPOCH":18256,"BSTAR":-4.8362981e-5,"MEAN_MOTION_DOT":-6.0e-8,"MEAN_MOTION_DDOT":0},{"OBJECT_NAME":"ONEWEB-0419","OBJECT_ID":"2021-132AB","EPOCH":"2025-08-24T10:53:19.525344","MEAN_MOTION":13.18681559,"ECCENTRICITY":0.00016437,"INCLINATION":87.915,"RA_OF_ASC_NODE":34.3808,"ARG_OF_PERICENTER":105.2837,"MEAN_ANOMALY":254.8477,"EPHEMERIS_TYPE":0,"CLASSIFICATION_TYPE":"U","NORAD_CAT_ID":50494,"ELEMENT_SET_NO":999,"REV_AT_EPOCH":18247,"BSTAR":0.00010180217,"MEAN_MOTION_DOT":5.3e-7,"MEAN_MOTION_DDOT":0},{"OBJECT_NAME":"ONEWEB-0420","OBJECT_ID":"2021-132AC","EPOCH":"2025-08-24T11:52:43.069152","MEAN_MOTION":13.18686743,"ECCENTRICITY":0.00016756,"INCLINATION":87.9151,"RA_OF_ASC_NODE":34.3829,"ARG_OF_PERICENTER":83.3756,"MEAN_ANOMALY":276.7567,"EPHEMERIS_TYPE":0,"CLASSIFICATION_TYPE":"U","NORAD_CAT_ID":50495,"ELEMENT_SET_NO":999,"REV_AT_EPOCH":18247,"BSTAR":0.00014710999,"MEAN_MOTION_DOT":7.1e-7,"MEAN_MOTION_DDOT":0},{"OBJECT_NAME":"ONEWEB-0421","OBJECT_ID":"2021-132AD","EPOCH":"2025-08-24T11:43:13.573920","MEAN_MOTION":13.18686601,"ECCENTRICITY":0.00020991,"INCLINATION":87.9153,"RA_OF_ASC_NODE":34.3775,"ARG_OF_PERICENTER":90.6129,"MEAN_ANOMALY":269.5243,"EPHEMERIS_TYPE":0,"CLASSIFICATION_TYPE":"U","NORAD_CAT_ID":50496,"ELEMENT_SET_NO":999,"REV_AT_EPOCH":18251,"BSTAR":0.0001844393,"MEAN_MOTION_DOT":8.6e-7,"MEAN_MOTION_DDOT":0},{"OBJECT_NAME":"ONEWEB-0424","OBJECT_ID":"2021-132AE","EPOCH":"2025-08-24T10:46:11.060832","MEAN_MOTION":13.18686706,"ECCENTRICITY":0.0001493,"INCLINATION":87.9155,"RA_OF_ASC_NODE":34.3797,"ARG_OF_PERICENTER":105.3532,"MEAN_ANOMALY":254.7765,"EPHEMERIS_TYPE":0,"CLASSIFICATION_TYPE":"U","NORAD_CAT_ID":50497,"ELEMENT_SET_NO":999,"REV_AT_EPOCH":18253,"BSTAR":0.0001947643,"MEAN_MOTION_DOT":9.0e-7,"MEAN_MOTION_DDOT":0},{"OBJECT_NAME":"ONEWEB-0426","OBJECT_ID":"2021-132AF","EPOCH":"2025-08-24T11:38:28.262976","MEAN_MOTION":13.18686327,"ECCENTRICITY":0.00025369,"INCLINATION":87.9153,"RA_OF_ASC_NODE":34.3657,"ARG_OF_PERICENTER":97.9465,"MEAN_ANOMALY":262.1955,"EPHEMERIS_TYPE":0,"CLASSIFICATION_TYPE":"U","NORAD_CAT_ID":50498,"ELEMENT_SET_NO":999,"REV_AT_EPOCH":18248,"BSTAR":1.5390518e-5,"MEAN_MOTION_DOT":1.9e-7,"MEAN_MOTION_DDOT":0},{"OBJECT_NAME":"ONEWEB-0427","OBJECT_ID":"2021-132AG","EPOCH":"2025-08-24T10:43:48.868896","MEAN_MOTION":13.18684803,"ECCENTRICITY":0.00018515,"INCLINATION":87.9152,"RA_OF_ASC_NODE":34.3623,"ARG_OF_PERICENTER":100.4335,"MEAN_ANOMALY":259.7006,"EPHEMERIS_TYPE":0,"CLASSIFICATION_TYPE":"U","NORAD_CAT_ID":50499,"ELEMENT_SET_NO":999,"REV_AT_EPOCH":18250,"BSTAR":0.00014822839,"MEAN_MOTION_DOT":7.1e-7,"MEAN_MOTION_DDOT":0},{"OBJECT_NAME":"ONEWEB-0429","OBJECT_ID":"2021-132AH","EPOCH":"2025-08-24T12:14:08.021184","MEAN_MOTION":13.18687642,"ECCENTRICITY":0.0001701,"INCLINATION":87.9154,"RA_OF_ASC_NODE":34.3795,"ARG_OF_PERICENTER":89.497,"MEAN_ANOMALY":270.6357,"EPHEMERIS_TYPE":0,"CLASSIFICATION_TYPE":"U","NORAD_CAT_ID":50500,"ELEMENT_SET_NO":999,"REV_AT_EPOCH":18248,"BSTAR":-0.00021058608,"MEAN_MOTION_DOT":-7.0e-7,"MEAN_MOTION_DDOT":0},{"OBJECT_NAME":"ONEWEB-0430","OBJECT_ID":"2021-132AJ","EPOCH":"2025-08-24T11:57:28.362816","MEAN_MOTION":13.18685933,"ECCENTRICITY":0.00014826,"INCLINATION":87.9154,"RA_OF_ASC_NODE":34.376,"ARG_OF_PERICENTER":94.7436,"MEAN_ANOMALY":265.3865,"EPHEMERIS_TYPE":0,"CLASSIFICATION_TYPE":"U","NORAD_CAT_ID":50501,"ELEMENT_SET_NO":999,"REV_AT_EPOCH":18252,"BSTAR":-3.2096899e-5,"MEAN_MOTION_DOT":0,"MEAN_MOTION_DDOT":0},{"OBJECT_NAME":"ONEWEB-0432","OBJECT_ID":"2021-132AK","EPOCH":"2025-08-24T10:53:36.936672","MEAN_MOTION":13.18689375,"ECCENTRICITY":0.00018748,"INCLINATION":87.9146,"RA_OF_ASC_NODE":34.3644,"ARG_OF_PERICENTER":123.4454,"MEAN_ANOMALY":236.6858,"EPHEMERIS_TYPE":0,"CLASSIFICATION_TYPE":"U","NORAD_CAT_ID":50502,"ELEMENT_SET_NO":999,"REV_AT_EPOCH":18247,"BSTAR":3.4798431e-5,"MEAN_MOTION_DOT":2.7e-7,"MEAN_MOTION_DDOT":0},{"OBJECT_NAME":"ONEWEB-0440","OBJECT_ID":"2021-132AL","EPOCH":"2025-08-24T12:25:57.839520","MEAN_MOTION":13.18688168,"ECCENTRICITY":0.00020042,"INCLINATION":87.9156,"RA_OF_ASC_NODE":34.3612,"ARG_OF_PERICENTER":82.9685,"MEAN_ANOMALY":277.1675,"EPHEMERIS_TYPE":0,"CLASSIFICATION_TYPE":"U","NORAD_CAT_ID":50503,"ELEMENT_SET_NO":999,"REV_AT_EPOCH":18247,"BSTAR":0.00016538255,"MEAN_MOTION_DOT":7.8e-7,"MEAN_MOTION_DDOT":0},{"OBJECT_NAME":"ONEWEB-0450","OBJECT_ID":"2021-132AM","EPOCH":"2025-08-24T12:16:41.517696","MEAN_MOTION":13.18686688,"ECCENTRICITY":0.00015598,"INCLINATION":87.9153,"RA_OF_ASC_NODE":34.3881,"ARG_OF_PERICENTER":86.7366,"MEAN_ANOMALY":273.3945,"EPHEMERIS_TYPE":0,"CLASSIFICATION_TYPE":"U","NORAD_CAT_ID":50504,"ELEMENT_SET_NO":999,"REV_AT_EPOCH":18250,"BSTAR":-8.95133e-6,"MEAN_MOTION_DOT":9.0e-8,"MEAN_MOTION_DDOT":0},{"OBJECT_NAME":"ONEWEB-0410","OBJECT_ID":"2022-012A","EPOCH":"2025-08-24T12:49:55.192512","MEAN_MOTION":13.17650411,"ECCENTRICITY":0.00029369,"INCLINATION":87.9033,"RA_OF_ASC_NODE":64.8644,"ARG_OF_PERICENTER":111.3029,"MEAN_ANOMALY":248.8416,"EPHEMERIS_TYPE":0,"CLASSIFICATION_TYPE":"U","NORAD_CAT_ID":51622,"ELEMENT_SET_NO":999,"REV_AT_EPOCH":17463,"BSTAR":7.3138909e-5,"MEAN_MOTION_DOT":4.1e-7,"MEAN_MOTION_DDOT":0},{"OBJECT_NAME":"ONEWEB-0411","OBJECT_ID":"2022-012B","EPOCH":"2025-08-24T14:14:10.945536","MEAN_MOTION":13.10375779,"ECCENTRICITY":0.00011224,"INCLINATION":87.8762,"RA_OF_ASC_NODE":95.423,"ARG_OF_PERICENTER":80.2141,"MEAN_ANOMALY":279.9113,"EPHEMERIS_TYPE":0,"CLASSIFICATION_TYPE":"U","NORAD_CAT_ID":51623,"ELEMENT_SET_NO":999,"REV_AT_EPOCH":17044,"BSTAR":0.0017679015,"MEAN_MOTION_DOT":6.3e-6,"MEAN_MOTION_DDOT":0},{"OBJECT_NAME":"ONEWEB-0415","OBJECT_ID":"2022-012C","EPOCH":"2025-08-24T14:09:23.915232","MEAN_MOTION":13.1037709,"ECCENTRICITY":0.00013967,"INCLINATION":87.8763,"RA_OF_ASC_NODE":95.4265,"ARG_OF_PERICENTER":82.0881,"MEAN_ANOMALY":278.0405,"EPHEMERIS_TYPE":0,"CLASSIFICATION_TYPE":"U","NORAD_CAT_ID":51624,"ELEMENT_SET_NO":999,"REV_AT_EPOCH":17044,"BSTAR":0.00157747,"MEAN_MOTION_DOT":5.63e-6,"MEAN_MOTION_DDOT":0}]
